{
  "type": "FeatureCollection",
  "features": [
    {
      "type": "Feature",
      "properties": {
        "norad_id": 39617,
        "name": "ASTRA 5B (EGNOS/PRN 123)",
        "group": "gnss",
        "lat": -0.059030747706891706,
        "lon": -98.1710358081665,
        "alt_km": 35767.09130625794,
        "timestamp": "2025-12-27T09:28:56.718449+00:00",
        "meta_object_name": "ASTRA 5B (EGNOS/PRN 123)",
        "meta_object_id": "2014-011B",
        "meta_epoch": "2025-12-27T02:50:29.086080",
        "meta_mean_motion": 1.00271827,
        "meta_eccentricity": 0.0004754,
        "meta_inclination": 0.0465,
        "meta_ra_of_asc_node": 19.6059,
        "meta_arg_of_pericenter": 261.8896,
        "meta_mean_anomaly": 240.4712,
        "meta_ephemeris_type": 0,
        "meta_classification_type": "U",
        "meta_norad_cat_id": 39617,
        "meta_element_set_no": 999,
        "meta_rev_at_epoch": 4294,
        "meta_bstar": 0,
        "meta_mean_motion_dot": 1.59e-06,
        "meta_mean_motion_ddot": 0,
        "tle_line1": "1 39617U 14011B   25361.11839220  .00000159  00000+0  00000+0 0  9999",
        "tle_line2": "2 39617   0.0465  19.6059 0004754 261.8896 240.4712  1.00271827 42940"
      },
      "geometry": {
        "type": "Point",
        "coordinates": [
          -98.1710358081665,
          -0.059030747706891706
        ]
      }
    },
    {
      "type": "Feature",
      "properties": {
        "norad_id": 39620,
        "name": "COSMOS 2492 (754)",
        "group": "gnss",
        "lat": -27.835200797268254,
        "lon": 153.75018023891084,
        "alt_km": 19141.958311060964,
        "timestamp": "2025-12-27T09:28:56.718460+00:00",
        "meta_object_name": "COSMOS 2492 (754)",
        "meta_object_id": "2014-012A",
        "meta_epoch": "2025-12-26T15:36:55.855008",
        "meta_mean_motion": 2.13103318,
        "meta_eccentricity": 0.00143264,
        "meta_inclination": 65.4001,
        "meta_ra_of_asc_node": 319.7994,
        "meta_arg_of_pericenter": 314.1039,
        "meta_mean_anomaly": 45.7823,
        "meta_ephemeris_type": 0,
        "meta_classification_type": "U",
        "meta_norad_cat_id": 39620,
        "meta_element_set_no": 999,
        "meta_rev_at_epoch": 9156,
        "meta_bstar": 0,
        "meta_mean_motion_dot": -3.5e-07,
        "meta_mean_motion_ddot": 0,
        "tle_line1": "1 39620U 14012A   25360.65064647 -.00000035  00000+0  00000+0 0  9999",
        "tle_line2": "2 39620  65.4001 319.7994 0014326 314.1039  45.7823  2.13103318 91569"
      },
      "geometry": {
        "type": "Point",
        "coordinates": [
          153.75018023891084,
          -27.835200797268254
        ]
      }
    },
    {
      "type": "Feature",
      "properties": {
        "norad_id": 39635,
        "name": "IRNSS-1B",
        "group": "gnss",
        "lat": 21.92040724815104,
        "lon": -70.62145332681237,
        "alt_km": 35826.14936467396,
        "timestamp": "2025-12-27T09:28:56.718472+00:00",
        "meta_object_name": "IRNSS-1B",
        "meta_object_id": "2014-017A",
        "meta_epoch": "2025-12-26T18:07:21.625824",
        "meta_mean_motion": 1.00272789,
        "meta_eccentricity": 0.0018552,
        "meta_inclination": 29.2303,
        "meta_ra_of_asc_node": 243.3531,
        "meta_arg_of_pericenter": 173.082,
        "meta_mean_anomaly": 6.0255,
        "meta_ephemeris_type": 0,
        "meta_classification_type": "U",
        "meta_norad_cat_id": 39635,
        "meta_element_set_no": 999,
        "meta_rev_at_epoch": 4306,
        "meta_bstar": 0,
        "meta_mean_motion_dot": 1.37e-06,
        "meta_mean_motion_ddot": 0,
        "tle_line1": "1 39635U 14017A   25360.75511141  .00000137  00000+0  00000+0 0  9999",
        "tle_line2": "2 39635  29.2303 243.3531 0018552 173.0820   6.0255  1.00272789 43067"
      },
      "geometry": {
        "type": "Point",
        "coordinates": [
          -70.62145332681237,
          21.92040724815104
        ]
      }
    },
    {
      "type": "Feature",
      "properties": {
        "norad_id": 39727,
        "name": "LUCH 5V (SDCM/PRN 141)",
        "group": "gnss",
        "lat": -4.668014698014987,
        "lon": -26.88221706931117,
        "alt_km": 35775.22170779889,
        "timestamp": "2025-12-27T09:28:56.718483+00:00",
        "meta_object_name": "LUCH 5V (SDCM/PRN 141)",
        "meta_object_id": "2014-023A",
        "meta_epoch": "2025-12-27T03:10:49.639872",
        "meta_mean_motion": 1.00273147,
        "meta_eccentricity": 0.0003843,
        "meta_inclination": 4.7038,
        "meta_ra_of_asc_node": 71.4148,
        "meta_arg_of_pericenter": 214.9364,
        "meta_mean_anomaly": 311.9757,
        "meta_ephemeris_type": 0,
        "meta_classification_type": "U",
        "meta_norad_cat_id": 39727,
        "meta_element_set_no": 999,
        "meta_rev_at_epoch": 4263,
        "meta_bstar": 0,
        "meta_mean_motion_dot": -2.49e-06,
        "meta_mean_motion_ddot": 0,
        "tle_line1": "1 39727U 14023A   25361.13251898 -.00000249  00000+0  00000+0 0  9996",
        "tle_line2": "2 39727   4.7038  71.4148 0003843 214.9364 311.9757  1.00273147 42637"
      },
      "geometry": {
        "type": "Point",
        "coordinates": [
          -26.88221706931117,
          -4.668014698014987
        ]
      }
    },
    {
      "type": "Feature",
      "properties": {
        "norad_id": 39741,
        "name": "GPS BIIF-6  (PRN 06)",
        "group": "gnss",
        "lat": -33.25382207184168,
        "lon": -47.45510868543141,
        "alt_km": 20081.613859069454,
        "timestamp": "2025-12-27T09:28:56.718495+00:00",
        "meta_object_name": "GPS BIIF-6  (PRN 06)",
        "meta_object_id": "2014-026A",
        "meta_epoch": "2025-12-26T22:52:18.642720",
        "meta_mean_motion": 2.00560233,
        "meta_eccentricity": 0.0039524,
        "meta_inclination": 56.578,
        "meta_ra_of_asc_node": 338.2238,
        "meta_arg_of_pericenter": 319.4951,
        "meta_mean_anomaly": 40.2191,
        "meta_ephemeris_type": 0,
        "meta_classification_type": "U",
        "meta_norad_cat_id": 39741,
        "meta_element_set_no": 999,
        "meta_rev_at_epoch": 8508,
        "meta_bstar": 0,
        "meta_mean_motion_dot": -5.7e-07,
        "meta_mean_motion_ddot": 0,
        "tle_line1": "1 39741U 14026A   25360.95299355 -.00000057  00000+0  00000+0 0  9991",
        "tle_line2": "2 39741  56.5780 338.2238 0039524 319.4951  40.2191  2.00560233 85080"
      },
      "geometry": {
        "type": "Point",
        "coordinates": [
          -47.45510868543141,
          -33.25382207184168
        ]
      }
    },
    {
      "type": "Feature",
      "properties": {
        "norad_id": 40001,
        "name": "COSMOS 2500 (755)",
        "group": "gnss",
        "lat": 63.16474113011303,
        "lon": 24.70221279375376,
        "alt_km": 19137.739982660452,
        "timestamp": "2025-12-27T09:28:56.718506+00:00",
        "meta_object_name": "COSMOS 2500 (755)",
        "meta_object_id": "2014-032A",
        "meta_epoch": "2025-12-26T08:28:54.444288",
        "meta_mean_motion": 2.13106178,
        "meta_eccentricity": 0.0007619,
        "meta_inclination": 65.3358,
        "meta_ra_of_asc_node": 319.5702,
        "meta_arg_of_pericenter": 219.616,
        "meta_mean_anomaly": 140.3327,
        "meta_ephemeris_type": 0,
        "meta_classification_type": "U",
        "meta_norad_cat_id": 40001,
        "meta_element_set_no": 999,
        "meta_rev_at_epoch": 8977,
        "meta_bstar": 0,
        "meta_mean_motion_dot": -3.4e-07,
        "meta_mean_motion_ddot": 0,
        "tle_line1": "1 40001U 14032A   25360.35340792 -.00000034  00000+0  00000+0 0  9990",
        "tle_line2": "2 40001  65.3358 319.5702 0007619 219.6160 140.3327  2.13106178 89772"
      },
      "geometry": {
        "type": "Point",
        "coordinates": [
          24.70221279375376,
          63.16474113011303
        ]
      }
    },
    {
      "type": "Feature",
      "properties": {
        "norad_id": 40105,
        "name": "GPS BIIF-7  (PRN 09)",
        "group": "gnss",
        "lat": -53.29214892748099,
        "lon": -16.20758289294627,
        "alt_km": 20249.977898481444,
        "timestamp": "2025-12-27T09:28:56.718531+00:00",
        "meta_object_name": "GPS BIIF-7  (PRN 09)",
        "meta_object_id": "2014-045A",
        "meta_epoch": "2025-12-23T13:11:32.096256",
        "meta_mean_motion": 2.00573211,
        "meta_eccentricity": 0.00324114,
        "meta_inclination": 55.2352,
        "meta_ra_of_asc_node": 95.4677,
        "meta_arg_of_pericenter": 120.1575,
        "meta_mean_anomaly": 240.1743,
        "meta_ephemeris_type": 0,
        "meta_classification_type": "U",
        "meta_norad_cat_id": 40105,
        "meta_element_set_no": 999,
        "meta_rev_at_epoch": 8255,
        "meta_bstar": 0,
        "meta_mean_motion_dot": 8e-08,
        "meta_mean_motion_ddot": 0,
        "tle_line1": "1 40105U 14045A   25357.54967704  .00000008  00000+0  00000+0 0  9994",
        "tle_line2": "2 40105  55.2352  95.4677 0032411 120.1575 240.1743  2.00573211 82556"
      },
      "geometry": {
        "type": "Point",
        "coordinates": [
          -16.20758289294627,
          -53.29214892748099
        ]
      }
    }
  ]
}